{"fetched_at":"2026-07-24T07:06:13.624Z","source":"https://celestrak.org/NORAD/elements/gp.php?GROUP=spire&FORMAT=JSON","constellation":"spire","records":[{"OBJECT_NAME":"LEMUR-2-LEIA-PHILIP","OBJECT_ID":"2025-052AN","EPOCH":"2026-07-23T03:43:59.873376","CLASSIFICATION_TYPE":"U","MEAN_MOTION":14.97399507,"ECCENTRICITY":0.0005108,"INCLINATION":97.6784,"RA_OF_ASC_NODE":95.4948,"ARG_OF_PERICENTER":103.2748,"MEAN_ANOMALY":256.9044,"EPHEMERIS_TYPE":0,"NORAD_CAT_ID":63246,"ELEMENT_SET_NO":999,"REV_AT_EPOCH":7405,"BSTAR":0.000084898,"MEAN_MOTION_DOT":0.00000929,"MEAN_MOTION_DDOT":0},{"OBJECT_NAME":"LEMUR-2-LIA-MARTIN","OBJECT_ID":"2025-052AQ","EPOCH":"2026-07-23T09:55:54.240672","CLASSIFICATION_TYPE":"U","MEAN_MOTION":14.98068559,"ECCENTRICITY":0.000461,"INCLINATION":97.6842,"RA_OF_ASC_NODE":96.2818,"ARG_OF_PERICENTER":69.6193,"MEAN_ANOMALY":290.5524,"EPHEMERIS_TYPE":0,"NORAD_CAT_ID":63248,"ELEMENT_SET_NO":999,"REV_AT_EPOCH":7410,"BSTAR":0.00031591,"MEAN_MOTION_DOT":0.00003679,"MEAN_MOTION_DDOT":0},{"OBJECT_NAME":"LEMUR-2-DELOITTE-1","OBJECT_ID":"2025-052BB","EPOCH":"2026-07-23T12:42:04.216608","CLASSIFICATION_TYPE":"U","MEAN_MOTION":14.97832388,"ECCENTRICITY":0.0002446,"INCLINATION":97.6887,"RA_OF_ASC_NODE":96.7258,"ARG_OF_PERICENTER":52.2157,"MEAN_ANOMALY":307.9287,"EPHEMERIS_TYPE":0,"NORAD_CAT_ID":63259,"ELEMENT_SET_NO":999,"REV_AT_EPOCH":7413,"BSTAR":0.00031917,"MEAN_MOTION_DOT":0.00003695,"MEAN_MOTION_DDOT":0},{"OBJECT_NAME":"LEMUR-2-EMERSONROSE","OBJECT_ID":"2025-052BD","EPOCH":"2026-07-23T03:13:48.474048","CLASSIFICATION_TYPE":"U","MEAN_MOTION":14.99336545,"ECCENTRICITY":0.00022045,"INCLINATION":97.6884,"RA_OF_ASC_NODE":96.9686,"ARG_OF_PERICENTER":40.2656,"MEAN_ANOMALY":319.873,"EPHEMERIS_TYPE":0,"NORAD_CAT_ID":63261,"ELEMENT_SET_NO":999,"REV_AT_EPOCH":7412,"BSTAR":0.00029084977,"MEAN_MOTION_DOT":0.00003496,"MEAN_MOTION_DDOT":0},{"OBJECT_NAME":"LEMUR-2-MARACHE-FRAN","OBJECT_ID":"2025-052BE","EPOCH":"2026-07-23T16:27:02.975040","CLASSIFICATION_TYPE":"U","MEAN_MOTION":15.00361304,"ECCENTRICITY":0.0006279,"INCLINATION":97.6805,"RA_OF_ASC_NODE":97.8861,"ARG_OF_PERICENTER":219.6562,"MEAN_ANOMALY":140.4203,"EPHEMERIS_TYPE":0,"NORAD_CAT_ID":63262,"ELEMENT_SET_NO":999,"REV_AT_EPOCH":7423,"BSTAR":0.00034883,"MEAN_MOTION_DOT":0.00004321,"MEAN_MOTION_DDOT":0},{"OBJECT_NAME":"LEMUR-2-THEFALCONER","OBJECT_ID":"2025-052BG","EPOCH":"2026-07-23T16:40:11.576352","CLASSIFICATION_TYPE":"U","MEAN_MOTION":14.9759668,"ECCENTRICITY":0.0001117,"INCLINATION":97.6806,"RA_OF_ASC_NODE":96.4689,"ARG_OF_PERICENTER":194.4097,"MEAN_ANOMALY":165.7093,"EPHEMERIS_TYPE":0,"NORAD_CAT_ID":63264,"ELEMENT_SET_NO":999,"REV_AT_EPOCH":7415,"BSTAR":0.0002898,"MEAN_MOTION_DOT":0.00003329,"MEAN_MOTION_DDOT":0},{"OBJECT_NAME":"LEMUR-2-UNTITLED-SC","OBJECT_ID":"2025-061A","EPOCH":"2026-07-23T20:18:07.144992","CLASSIFICATION_TYPE":"U","MEAN_MOTION":15.13689839,"ECCENTRICITY":0.0020024,"INCLINATION":97.5659,"RA_OF_ASC_NODE":179.9506,"ARG_OF_PERICENTER":134.5995,"MEAN_ANOMALY":225.6874,"EPHEMERIS_TYPE":0,"NORAD_CAT_ID":63351,"ELEMENT_SET_NO":999,"REV_AT_EPOCH":7313,"BSTAR":0.00019142,"MEAN_MOTION_DOT":0.00003394,"MEAN_MOTION_DDOT":0},{"OBJECT_NAME":"LEMUR-2-ESPERANZA","OBJECT_ID":"2025-061B","EPOCH":"2026-07-23T21:16:54.962400","CLASSIFICATION_TYPE":"U","MEAN_MOTION":15.1379561,"ECCENTRICITY":0.0019648,"INCLINATION":97.5667,"RA_OF_ASC_NODE":180.0935,"ARG_OF_PERICENTER":133.8781,"MEAN_ANOMALY":226.4077,"EPHEMERIS_TYPE":0,"NORAD_CAT_ID":63352,"ELEMENT_SET_NO":999,"REV_AT_EPOCH":7314,"BSTAR":0.00021583,"MEAN_MOTION_DOT":0.00003846,"MEAN_MOTION_DDOT":0},{"OBJECT_NAME":"LEMUR-2-KREMPEL-BRO2","OBJECT_ID":"2025-061C","EPOCH":"2026-07-23T08:59:25.883232","CLASSIFICATION_TYPE":"U","MEAN_MOTION":15.14220632,"ECCENTRICITY":0.0020674,"INCLINATION":97.5715,"RA_OF_ASC_NODE":180.164,"ARG_OF_PERICENTER":128.5364,"MEAN_ANOMALY":231.7724,"EPHEMERIS_TYPE":0,"NORAD_CAT_ID":63353,"ELEMENT_SET_NO":999,"REV_AT_EPOCH":7308,"BSTAR":0.00019241,"MEAN_MOTION_DOT":0.00003465,"MEAN_MOTION_DDOT":0},{"OBJECT_NAME":"LEMUR-2-THERMORAPTOR","OBJECT_ID":"2025-061D","EPOCH":"2026-07-23T19:36:51.951744","CLASSIFICATION_TYPE":"U","MEAN_MOTION":15.1430727,"ECCENTRICITY":0.0020427,"INCLINATION":97.5719,"RA_OF_ASC_NODE":180.6872,"ARG_OF_PERICENTER":126.1097,"MEAN_ANOMALY":234.2029,"EPHEMERIS_TYPE":0,"NORAD_CAT_ID":63354,"ELEMENT_SET_NO":999,"REV_AT_EPOCH":7315,"BSTAR":0.00022654,"MEAN_MOTION_DOT":0.00004101,"MEAN_MOTION_DDOT":0},{"OBJECT_NAME":"LEMUR-2-NEUROSPICY","OBJECT_ID":"2025-061E","EPOCH":"2026-07-23T20:27:08.390016","CLASSIFICATION_TYPE":"U","MEAN_MOTION":15.14425777,"ECCENTRICITY":0.0018282,"INCLINATION":97.5644,"RA_OF_ASC_NODE":180.3197,"ARG_OF_PERICENTER":128.8962,"MEAN_ANOMALY":231.3903,"EPHEMERIS_TYPE":0,"NORAD_CAT_ID":63355,"ELEMENT_SET_NO":999,"REV_AT_EPOCH":7316,"BSTAR":0.00019455,"MEAN_MOTION_DOT":0.00003521,"MEAN_MOTION_DDOT":0},{"OBJECT_NAME":"LEMUR-2-TILLINFINITY","OBJECT_ID":"2025-061F","EPOCH":"2026-07-23T19:22:27.054048","CLASSIFICATION_TYPE":"U","MEAN_MOTION":15.15017047,"ECCENTRICITY":0.0019688,"INCLINATION":97.5631,"RA_OF_ASC_NODE":180.5913,"ARG_OF_PERICENTER":118.2874,"MEAN_ANOMALY":242.0348,"EPHEMERIS_TYPE":0,"NORAD_CAT_ID":63356,"ELEMENT_SET_NO":999,"REV_AT_EPOCH":7318,"BSTAR":0.00026866,"MEAN_MOTION_DOT":0.00004975,"MEAN_MOTION_DDOT":0},{"OBJECT_NAME":"LEMUR-2-KREMPEL-BRO1","OBJECT_ID":"2025-061G","EPOCH":"2026-07-23T20:26:07.038240","CLASSIFICATION_TYPE":"U","MEAN_MOTION":15.14817322,"ECCENTRICITY":0.0020308,"INCLINATION":97.5631,"RA_OF_ASC_NODE":180.5411,"ARG_OF_PERICENTER":119.3504,"MEAN_ANOMALY":240.9759,"EPHEMERIS_TYPE":0,"NORAD_CAT_ID":63357,"ELEMENT_SET_NO":999,"REV_AT_EPOCH":7318,"BSTAR":0.00019366,"MEAN_MOTION_DOT":0.00003547,"MEAN_MOTION_DDOT":0},{"OBJECT_NAME":"LEMUR-2-LANGER2SPACE","OBJECT_ID":"2025-061H","EPOCH":"2026-07-23T21:14:53.994624","CLASSIFICATION_TYPE":"U","MEAN_MOTION":15.14510647,"ECCENTRICITY":0.0018147,"INCLINATION":97.5637,"RA_OF_ASC_NODE":180.3739,"ARG_OF_PERICENTER":127.1496,"MEAN_ANOMALY":233.1396,"EPHEMERIS_TYPE":0,"NORAD_CAT_ID":63358,"ELEMENT_SET_NO":999,"REV_AT_EPOCH":7317,"BSTAR":0.00021797,"MEAN_MOTION_DOT":0.00003962,"MEAN_MOTION_DDOT":0},{"OBJECT_NAME":"LEMUR-2-BALTO","OBJECT_ID":"2025-052BH","EPOCH":"2026-07-23T06:27:53.123040","CLASSIFICATION_TYPE":"U","MEAN_MOTION":15.0041294,"ECCENTRICITY":0.0005024,"INCLINATION":97.6918,"RA_OF_ASC_NODE":97.4751,"ARG_OF_PERICENTER":291.9274,"MEAN_ANOMALY":68.1415,"EPHEMERIS_TYPE":0,"NORAD_CAT_ID":63395,"ELEMENT_SET_NO":999,"REV_AT_EPOCH":7417,"BSTAR":0.00033428,"MEAN_MOTION_DOT":0.00004144,"MEAN_MOTION_DDOT":0},{"OBJECT_NAME":"LEMUR-2-KRISH","OBJECT_ID":"2025-135AK","EPOCH":"2026-07-23T07:37:53.720832","CLASSIFICATION_TYPE":"U","MEAN_MOTION":14.96495776,"ECCENTRICITY":0.0001289,"INCLINATION":97.7759,"RA_OF_ASC_NODE":318.9566,"ARG_OF_PERICENTER":111.5369,"MEAN_ANOMALY":248.5989,"EPHEMERIS_TYPE":0,"NORAD_CAT_ID":64561,"ELEMENT_SET_NO":999,"REV_AT_EPOCH":5932,"BSTAR":0.00042741,"MEAN_MOTION_DOT":0.00004798,"MEAN_MOTION_DDOT":0}]}
