LEMUR-2-LEIA-PHILIP     
1 63246U 25052AN  26204.15555409  .00000929  00000+0  84898-4 0  9993
2 63246  97.6784  95.4948 0005108 103.2748 256.9044 14.97399507 74052
LEMUR-2-LIA-MARTIN      
1 63248U 25052AQ  26204.41382223  .00003679  00000+0  31591-3 0  9992
2 63248  97.6842  96.2818 0004610  69.6193 290.5524 14.98068559 74104
LEMUR-2-DELOITTE-1      
1 63259U 25052BB  26204.52921547  .00003695  00000+0  31917-3 0  9994
2 63259  97.6887  96.7258 0002446  52.2157 307.9287 14.97832388 74131
LEMUR-2-EMERSONROSE     
1 63261U 25052BD  26204.13458882  .00003496  00000+0  29085-3 0  9993
2 63261  97.6884  96.9686 0002204  40.2656 319.8730 14.99336545 74121
LEMUR-2-MARACHE-FRAN    
1 63262U 25052BE  26204.68545110  .00004321  00000+0  34883-3 0  9995
2 63262  97.6805  97.8861 0006279 219.6562 140.4203 15.00361304 74233
LEMUR-2-THEFALCONER     
1 63264U 25052BG  26204.69457843  .00003329  00000+0  28980-3 0  9991
2 63264  97.6806  96.4689 0001117 194.4097 165.7093 14.97596680 74158
LEMUR-2-UNTITLED-SC     
1 63351U 25061A   26204.84591603  .00003394  00000+0  19142-3 0  9990
2 63351  97.5659 179.9506 0020024 134.5995 225.6874 15.13689839 73133
LEMUR-2-ESPERANZA       
1 63352U 25061B   26204.88674725  .00003846  00000+0  21583-3 0  9996
2 63352  97.5667 180.0935 0019648 133.8781 226.4077 15.13795610 73147
LEMUR-2-KREMPEL-BRO2    
1 63353U 25061C   26204.37460513  .00003465  00000+0  19241-3 0  9994
2 63353  97.5715 180.1640 0020674 128.5364 231.7724 15.14220632 73084
LEMUR-2-THERMORAPTOR    
1 63354U 25061D   26204.81726796  .00004101  00000+0  22654-3 0  9992
2 63354  97.5719 180.6872 0020427 126.1097 234.2029 15.14307270 73152
LEMUR-2-NEUROSPICY      
1 63355U 25061E   26204.85218044  .00003521  00000+0  19455-3 0  9999
2 63355  97.5644 180.3197 0018282 128.8962 231.3903 15.14425777 73166
LEMUR-2-TILLINFINITY    
1 63356U 25061F   26204.80725757  .00004975  00000+0  26866-3 0  9997
2 63356  97.5631 180.5913 0019688 118.2874 242.0348 15.15017047 73189
LEMUR-2-KREMPEL-BRO1    
1 63357U 25061G   26204.85147035  .00003547  00000+0  19366-3 0  9991
2 63357  97.5631 180.5411 0020308 119.3504 240.9759 15.14817322 73182
LEMUR-2-LANGER2SPACE    
1 63358U 25061H   26204.88534716  .00003962  00000+0  21797-3 0  9993
2 63358  97.5637 180.3739 0018147 127.1496 233.1396 15.14510647 73175
LEMUR-2-BALTO           
1 63395U 25052BH  26204.26936485  .00004144  00000+0  33428-3 0  9992
2 63395  97.6918  97.4751 0005024 291.9274  68.1415 15.00412940 74176
LEMUR-2-KRISH           
1 64561U 25135AK  26204.31798288  .00004798  00000+0  42741-3 0  9996
2 64561  97.7759 318.9566 0001289 111.5369 248.5989 14.96495776 59324
